PROBA-1                 
1 26958U 01049B   26194.61987457  .00001672  00000+0  11058-3 0  9996
2 26958  97.9604 204.0764 0055882  34.9336 325.5537 15.07612925347604
CUTE-1 (CO-55)          
1 27844U 03031E   26194.45028445  .00000157  00000+0  86848-4 0  9996
2 27844  98.6742 202.6793 0010803 107.1223 253.1140 14.24350896195418
CUBESAT XI-IV (CO-57)   
1 27848U 03031J   26194.52222380  .00000129  00000+0  75510-4 0  9995
2 27848  98.6773 202.4416 0010486 123.7879 236.4299 14.23634004195126
APRIZESAT 4             
1 35684U 09041D   26193.74598681  .00000345  00000+0  48023-4 0  9991
2 35684  98.1404 269.5752 0042095 237.6607 122.0528 14.83911924915154
APRIZESAT 3             
1 35686U 09041F   26194.38011459  .00001048  00000+0  95315-4 0  9994
2 35686  98.2095 348.8641 0060907 341.9316  17.9739 14.96307525920296
PROBA-2                 
1 36037U 09059B   26194.51266359  .00000083  00000+0  29776-4 0  9996
2 36037  98.2458  17.5015 0012896 194.0219 166.0622 14.54873268885358
APRIZESAT 5             
1 37792U 11044E   26194.35477184  .00000421  00000+0  60653-4 0  9999
2 37792  98.2450 128.1380 0050710 278.7883  80.7588 14.81125802802667
APRIZESAT 6             
1 37793U 11044F   26194.63749083  .00000386  00000+0  61964-4 0  9997
2 37793  98.2340 105.6750 0043187   3.2401  63.4293 14.76955387801050
PROBA-V                 
1 39159U 13021A   26194.40558917  .00000023  00000+0  28002-4 0  9995
2 39159  98.3605 171.7202 0005306  64.1776 295.9950 14.23603272684844
APRIZESAT 7             
1 39416U 13066A   26194.45095904  .00000434  00000+0  48317-4 0  9994
2 39416  97.7721 147.2959 0037130 122.8826 237.5975 14.91617048685141
APRIZESAT 8             
1 39425U 13066K   26194.64207120  .00000381  00000+0  47310-4 0  9993
2 39425  97.8230 141.7432 0045359 197.0303 162.9394 14.87695060683608
BUGSAT-1 (TITA)         
1 40014U 14033E   26194.57474436  .00002504  00000+0  13346-3 0  9992
2 40014  98.0440 288.6719 0029215  91.2869 269.1709 15.15871158659838
SAUDISAT 4              
1 40016U 14033G   26194.35878012  .00000254  00000+0  40358-4 0  9992
2 40016  97.7614 339.5933 0044407 350.0841   9.9490 14.79574569649942
APRIZESAT 9             
1 40018U 14033J   26194.61036626  .00000331  00000+0  55962-4 0  9993
2 40018  97.9092 327.1677 0067403 114.9255 245.8978 14.74251378647452
APRIZESAT 10            
1 40019U 14033K   26194.31711067  .00000314  00000+0  57208-4 0  9996
2 40019  97.9678 320.6981 0078596 189.3618 170.6128 14.70909592646098
TECHDEMOSAT-1 (TDS-1)   
1 40076U 14037H   26194.53784061  .00004598  00000+0  25988-3 0  9998
2 40076  98.3822 189.3714 0006742 164.0062 196.1381 15.13664177652218
TECHNOSAT               
1 42829U 17042E   26194.37805134  .00002037  00000+0  14687-3 0  9992
2 42829  97.4311 351.0449 0017599   9.3532 350.8019 15.05104462490648
FLYING LAPTOP           
1 42831U 17042G   26194.58046403  .00002183  00000+0  17346-3 0  9991
2 42831  97.4792 349.1191 0019767  37.7066 322.5540 15.01306679490412
HAWK-A                  
1 43765U 18099H   26194.59797355  .00003908  00000+0  15718-3 0  9998
2 43765  97.3902 246.4922 0034541 189.5884 170.4699 15.24951742417127
HAWK-B                  
1 43794U 18099AN  26194.58550992  .00003343  00000+0  14292-3 0  9992
2 43794  97.3952 245.8392 0031219 207.8130 152.1439 15.23103596417051
HAWK-C                  
1 43799U 18099AT  26194.64519743  .00004918  00000+0  17605-3 0  9993
2 43799  97.3879 247.5825 0040085 189.2873 170.7630 15.28474959417959
SALSAT                  
1 46495U 20068K   26194.50246524  .00004373  00000+0  15263-3 0  9990
2 46495  97.8854 199.1769 0008994 199.0888 161.0016 15.30157505319387
HAWK-2C                 
1 47502U 21006CT  26194.62205638  .00003924  00000+0  11785-3 0  9993
2 47502  97.2267 238.4074 0008640 105.3273 254.8926 15.34976717303552
HAWK-2A                 
1 47505U 21006CW  26194.16797016  .00003988  00000+0  11972-3 0  9999
2 47505  97.2311 238.6553 0008146 109.8797 250.3325 15.34987922303486
HAWK-2B                 
1 47508U 21006CZ  26194.61795180  .00004476  00000+0  13349-3 0  9995
2 47508  97.2180 237.3870 0008692 106.9902 253.2295 15.35121826303553
HAWK-3B                 
1 48931U 21059BE  26194.50864335  .00029507  00000+0  22908-3 0  9994
2 48931  97.6631  33.7494 0004318 204.4435 155.6623 15.71758213281983
HAWK-3C                 
1 48948U 21059BX  26194.50832932  .00029274  00000+0  22722-3 0  9995
2 48948  97.6753  39.4797 0004661 205.3009 154.8025 15.71762993281980
HAWK-3A                 
1 48957U 21059CG  26194.50821687  .00028655  00000+0  22247-3 0  9994
2 48957  97.6696  36.6637 0004469 207.8356 152.2667 15.71762141281985
HAWK-5C                 
1 52754U 22057Y   26194.61039409  .00011012  00000+0  18286-3 0  9995
2 52754  97.6607 356.0033 0002957 353.4016   6.7196 15.52288230230443
HAWK-5B                 
1 52756U 22057AA  26194.61020733  .00010962  00000+0  18204-3 0  9990
2 52756  97.6621 354.3562 0003610 339.0568  21.0535 15.52285751230440
